{
  "norad_id": 46562,
  "name": "STARLINK-1714",
  "history": [
    {
      "epoch": "2026-03-28T22:00:01.999584Z",
      "apogee_km": 404.20920995960387,
      "perigee_km": 403.01657142382646,
      "latitude_deg": 13.630014558145314,
      "longitude_deg": -122.30648534738751,
      "height_km": 404.3544050994249,
      "semi_major_axis_km": 6781.749890691714,
      "eccentricity": 8.793e-05,
      "inclination_deg": 53.0445,
      "raan_deg": 23.5803,
      "arg_perigee_deg": 195.4026,
      "mean_anomaly_deg": 181.7424,
      "mean_motion_rev_day": 15.54497788
    },
    {
      "epoch": "2026-03-29T02:33:23.431680Z",
      "apogee_km": 404.2165255903992,
      "perigee_km": 402.91850734594755,
      "latitude_deg": 1.5851597493190173e-05,
      "longitude_deg": 157.79960688539748,
      "height_km": 405.11152902680465,
      "semi_major_axis_km": 6781.704516468173,
      "eccentricity": 9.57e-05,
      "inclination_deg": 53.0455,
      "raan_deg": 22.6646,
      "arg_perigee_deg": 184.2529,
      "mean_anomaly_deg": 175.8473,
      "mean_motion_rev_day": 15.54513389
    },
    {
      "epoch": "2026-03-30T04:47:05.721792Z",
      "apogee_km": 403.37201534837004,
      "perigee_km": 402.0429698278231,
      "latitude_deg": -1.634652151649806e-05,
      "longitude_deg": 118.01281199778165,
      "height_km": 404.21402659337895,
      "semi_major_axis_km": 6780.844492588097,
      "eccentricity": 9.8e-05,
      "inclination_deg": 53.0458,
      "raan_deg": 17.3812,
      "arg_perigee_deg": 203.5405,
      "mean_anomaly_deg": 156.556,
      "mean_motion_rev_day": 15.5480914
    },
    {
      "epoch": "2026-03-30T04:47:05.722656Z",
      "apogee_km": 403.37228367439366,
      "perigee_km": 402.04269568685777,
      "latitude_deg": 6.554448480618174e-05,
      "longitude_deg": 118.01286965078049,
      "height_km": 404.2142623725447,
      "semi_major_axis_km": 6780.844489680626,
      "eccentricity": 9.804e-05,
      "inclination_deg": 53.0458,
      "raan_deg": 17.3812,
      "arg_perigee_deg": 203.5405,
      "mean_anomaly_deg": 156.5561,
      "mean_motion_rev_day": 15.54809141
    },
    {
      "epoch": "2026-03-30T14:00:03.000384Z",
      "apogee_km": 403.19141750145263,
      "perigee_km": 401.57426351949016,
      "latitude_deg": -7.471691707853375,
      "longitude_deg": -28.09170207222271,
      "height_km": 405.2443797255663,
      "semi_major_axis_km": 6780.519840510471,
      "eccentricity": 0.00011925,
      "inclination_deg": 53.0452,
      "raan_deg": 15.5245,
      "arg_perigee_deg": 201.7275,
      "mean_anomaly_deg": 149.0574,
      "mean_motion_rev_day": 15.54920808
    },
    {
      "epoch": "2026-03-30T22:00:00.999936Z",
      "apogee_km": 402.8132383983775,
      "perigee_km": 401.205665674599,
      "latitude_deg": 42.62152487003499,
      "longitude_deg": -100.88450638767051,
      "height_km": 406.78849888680287,
      "semi_major_axis_km": 6780.146452036488,
      "eccentricity": 0.00011855,
      "inclination_deg": 53.0452,
      "raan_deg": 13.9136,
      "arg_perigee_deg": 200.7535,
      "mean_anomaly_deg": 216.9448,
      "mean_motion_rev_day": 15.55049256
    },
    {
      "epoch": "2026-03-31T20:00:01.999008Z",
      "apogee_km": 402.3324319800349,
      "perigee_km": 400.26199277157593,
      "latitude_deg": 21.519582709178557,
      "longitude_deg": 43.10972295009108,
      "height_km": 401.21595724225307,
      "semi_major_axis_km": 6779.434212375805,
      "eccentricity": 0.0001527,
      "inclination_deg": 53.0448,
      "raan_deg": 9.4801,
      "arg_perigee_deg": 201.9834,
      "mean_anomaly_deg": 310.7724,
      "mean_motion_rev_day": 15.5529432
    },
    {
      "epoch": "2026-04-01T20:00:01.999008Z",
      "apogee_km": 401.64528908111424,
      "perigee_km": 399.3852864083792,
      "latitude_deg": -3.693215187423369,
      "longitude_deg": -128.3250267330096,
      "height_km": 402.92976784581356,
      "semi_major_axis_km": 6778.652287744746,
      "eccentricity": 0.0001667,
      "inclination_deg": 53.045,
      "raan_deg": 4.6419,
      "arg_perigee_deg": 206.9551,
      "mean_anomaly_deg": 148.5407,
      "mean_motion_rev_day": 15.55563435
    },
    {
      "epoch": "2026-04-02T20:00:01.999008Z",
      "apogee_km": 401.0150345581569,
      "perigee_km": 398.53296355030307,
      "latitude_deg": -15.363197467522477,
      "longitude_deg": 60.47907297567545,
      "height_km": 402.693965388227,
      "semi_major_axis_km": 6777.910999054229,
      "eccentricity": 0.0001831,
      "inclination_deg": 53.0452,
      "raan_deg": 359.8021,
      "arg_perigee_deg": 211.5373,
      "mean_anomaly_deg": 347.6186,
      "mean_motion_rev_day": 15.55818636
    },
    {
      "epoch": "2026-04-03T00:00:02.999808Z",
      "apogee_km": 400.73970336630737,
      "perigee_km": 398.55237722354195,
      "latitude_deg": 39.94295561346717,
      "longitude_deg": -153.56556766184488,
      "height_km": 404.24025595143854,
      "semi_major_axis_km": 6777.783040294924,
      "eccentricity": 0.00016136,
      "inclination_deg": 53.0449,
      "raan_deg": 358.9963,
      "arg_perigee_deg": 214.313,
      "mean_anomaly_deg": 198.9416,
      "mean_motion_rev_day": 15.55862695
    },
    {
      "epoch": "2026-04-03T21:21:17.539776Z",
      "apogee_km": 400.12509193184997,
      "perigee_km": 397.7395635284902,
      "latitude_deg": -1.6396858898389587e-06,
      "longitude_deg": -157.8531979559023,
      "height_km": 400.38578786006633,
      "semi_major_axis_km": 6777.06932773017,
      "eccentricity": 0.000176,
      "inclination_deg": 53.0443,
      "raan_deg": 354.6875,
      "arg_perigee_deg": 242.2932,
      "mean_anomaly_deg": 117.79,
      "mean_motion_rev_day": 15.5610848
    },
    {
      "epoch": "2026-04-04T03:31:12.793440Z",
      "apogee_km": 399.64703583987466,
      "perigee_km": 397.50166456062925,
      "latitude_deg": -7.925403040955341e-06,
      "longitude_deg": 108.16807173891314,
      "height_km": 400.3690518678872,
      "semi_major_axis_km": 6776.711350200252,
      "eccentricity": 0.00015829,
      "inclination_deg": 53.0452,
      "raan_deg": 353.4422,
      "arg_perigee_deg": 213.3169,
      "mean_anomaly_deg": 146.7742,
      "mean_motion_rev_day": 15.56231783
    },
    {
      "epoch": "2026-04-05T14:00:03.000384Z",
      "apogee_km": 399.0327719163688,
      "perigee_km": 395.722526479356,
      "latitude_deg": 34.635325537964206,
      "longitude_deg": 91.46330907463458,
      "height_km": 399.88562058197004,
      "semi_major_axis_km": 6775.514649197862,
      "eccentricity": 0.00024428,
      "inclination_deg": 53.0443,
      "raan_deg": 346.4798,
      "arg_perigee_deg": 225.2434,
      "mean_anomaly_deg": 269.6144,
      "mean_motion_rev_day": 15.56644097
    },
    {
      "epoch": "2026-04-05T20:00:03.000384Z",
      "apogee_km": 398.67848815417165,
      "perigee_km": 395.4792312252266,
      "latitude_deg": 52.68620041789194,
      "longitude_deg": -47.86428284821376,
      "height_km": 404.5136950438718,
      "semi_major_axis_km": 6775.215859689699,
      "eccentricity": 0.0002361,
      "inclination_deg": 53.0444,
      "raan_deg": 345.2689,
      "arg_perigee_deg": 226.6539,
      "mean_anomaly_deg": 230.0323,
      "mean_motion_rev_day": 15.56747071
    },
    {
      "epoch": "2026-04-06T06:00:02.000160Z",
      "apogee_km": 398.3681981204836,
      "perigee_km": 395.17504818821817,
      "latitude_deg": -53.080673221845615,
      "longitude_deg": -26.030180688399465,
      "height_km": 413.97865703153246,
      "semi_major_axis_km": 6774.908623154351,
      "eccentricity": 0.00023566,
      "inclination_deg": 53.0436,
      "raan_deg": 343.2494,
      "arg_perigee_deg": 233.1273,
      "mean_anomaly_deg": 40.0386,
      "mean_motion_rev_day": 15.56852968
    },
    {
      "epoch": "2026-04-07T14:00:01.999872Z",
      "apogee_km": 397.7113667042886,
      "perigee_km": 393.92486127467055,
      "latitude_deg": -9.05885152711366,
      "longitude_deg": 117.76523552842872,
      "height_km": 396.9471065425633,
      "semi_major_axis_km": 6773.955113989479,
      "eccentricity": 0.00027949,
      "inclination_deg": 53.0435,
      "raan_deg": 336.7809,
      "arg_perigee_deg": 234.1688,
      "mean_anomaly_deg": 317.048,
      "mean_motion_rev_day": 15.57181696
    },
    {
      "epoch": "2026-04-07T20:00:00.999360Z",
      "apogee_km": 397.42491184802566,
      "perigee_km": 393.70885789678414,
      "latitude_deg": 20.99724547047501,
      "longitude_deg": 2.7733093369190693,
      "height_km": 395.91702913396506,
      "semi_major_axis_km": 6773.703884872404,
      "eccentricity": 0.0002743,
      "inclination_deg": 53.0438,
      "raan_deg": 335.5693,
      "arg_perigee_deg": 237.3521,
      "mean_anomaly_deg": 276.101,
      "mean_motion_rev_day": 15.57268328
    },
    {
      "epoch": "2026-04-08T09:12:21.939264Z",
      "apogee_km": 397.2157307271482,
      "perigee_km": 393.2516832545898,
      "latitude_deg": 2.333363872874759e-05,
      "longitude_deg": -1.8386121229446926,
      "height_km": 397.0017211420808,
      "semi_major_axis_km": 6773.370706990869,
      "eccentricity": 0.00029262,
      "inclination_deg": 53.0444,
      "raan_deg": 332.8997,
      "arg_perigee_deg": 244.0387,
      "mean_anomaly_deg": 116.0323,
      "mean_motion_rev_day": 15.57383231
    },
    {
      "epoch": "2026-04-09T19:05:10.495104Z",
      "apogee_km": 396.48691442188465,
      "perigee_km": 392.3448210879651,
      "latitude_deg": -6.407118907992464e-06,
      "longitude_deg": -158.28566308937678,
      "height_km": 396.0263409970425,
      "semi_major_axis_km": 6772.552867754925,
      "eccentricity": 0.0003058,
      "inclination_deg": 53.0446,
      "raan_deg": 326.0464,
      "arg_perigee_deg": 249.9575,
      "mean_anomaly_deg": 110.1107,
      "mean_motion_rev_day": 15.57665339
    }
  ]
}